OBJECT_NAME,OBJECT_ID,EPOCH,MEAN_MOTION,ECCENTRICITY,INCLINATION,RA_OF_ASC_NODE,ARG_OF_PERICENTER,MEAN_ANOMALY,EPHEMERIS_TYPE,CLASSIFICATION_TYPE,NORAD_CAT_ID,ELEMENT_SET_NO,REV_AT_EPOCH,BSTAR,MEAN_MOTION_DOT,MEAN_MOTION_DDOT
STARLINK-37345,2026-111J,2026-06-13T14:00:01.999872,15.80732628,.00008512,53.1571,169.6734,92.3974,175.8919,0,U,69156,999,497,-.1541175E-1,-.2575536E-1,0
STARLINK-37353,2026-111K,2026-06-13T06:47:45.138048,15.80971582,.0001148,53.1573,171.1748,95.2430,264.8724,0,U,69157,999,364,.15401E-2,.3161E-2,0
STARLINK-37363,2026-111L,2026-06-13T14:00:01.999872,15.78964552,.00007903,53.1579,169.6487,74.3044,205.8602,0,U,69158,999,497,-.16591994E-1,-.2557703E-1,0
STARLINK-37343,2026-111M,2026-06-13T14:00:01.999872,15.49310445,.000077,53.1594,170.5524,89.4723,104.6740,0,U,69159,999,497,.36813273E-3,.20079E-3,0
STARLINK-37328,2026-111N,2026-06-12T21:38:20.730048,15.80890549,.0000811,53.1571,173.0599,108.8251,251.2860,0,U,69160,999,358,.41055747E-3,.81162E-3,0
STARLINK-37311,2026-111P,2026-06-13T07:00:14.188032,15.78116663,.0001326,53.1574,171.2323,95.4591,264.6581,0,U,69161,999,364,.1255E-2,.223651E-2,0
STARLINK-36286,2026-111Q,2026-06-12T15:47:02.628384,15.77702201,.00008158,53.1571,174.3873,172.6788,187.4246,0,U,69162,999,354,-.23896801E-2,-.390918E-2,0
STARLINK-37196,2026-111R,2026-06-13T11:36:31.272192,15.78136195,.0001276,53.1572,170.2954,94.9066,265.2101,0,U,69163,999,367,.15264781E-2,.274043E-2,0
STARLINK-36288,2026-111S,2026-06-13T14:00:01.999872,15.73017342,.00012052,53.1588,169.8052,87.4588,115.4841,0,U,69164,999,497,-.21365393E-1,-.2591873E-1,0
STARLINK-37445,2026-111T,2026-06-12T08:09:30.435840,15.77891462,.00031257,53.1576,175.9593,39.8044,320.3206,0,U,69165,999,349,-.17172854E-3,-.30174E-3,0
STARLINK-37491,2026-111U,2026-06-13T05:29:25.063584,15.78126386,.0001639,53.1572,171.5492,15.7925,344.3148,0,U,69166,999,363,.17121E-2,.30858E-2,0
STARLINK-37474,2026-111V,2026-06-13T06:56:56.072832,15.78064101,.0000994,53.1573,171.2157,85.9288,274.1847,0,U,69167,999,364,.6679E-3,.116943E-2,0
STARLINK-37469,2026-111W,2026-06-13T14:00:01.999872,15.49287761,.00007139,53.1584,170.7420,88.0391,11.9740,0,U,69168,999,497,.54501024E-3,.29957E-3,0
STARLINK-37515,2026-111X,2026-06-13T11:28:30.344736,15.76561582,.00011127,53.1579,170.2586,20.1093,339.9971,0,U,69169,999,367,-.72512895E-2,-.1060794E-1,0
STARLINK-37437,2026-111Y,2026-06-13T06:48:25.085088,15.78119735,.0001518,53.1583,171.1764,97.1544,262.9650,0,U,69170,999,364,.13804E-2,.24678E-2,0
STARLINK-37392,2026-111Z,2026-06-13T14:00:01.999872,15.74819940,.00008879,53.1588,169.6640,76.1946,194.5982,0,U,69171,999,497,-.20043676E-1,-.2625081E-1,0
STARLINK-37472,2026-111AA,2026-06-13T14:00:01.999872,15.60224635,.00014684,53.1590,169.8243,80.4979,111.1554,0,U,69172,999,497,-.35733791E-1,-.2570967E-1,0
STARLINK-37461,2026-111AB,2026-06-13T14:00:01.999872,15.49288124,.00011388,53.1585,170.6494,92.4297,52.8749,0,U,69173,999,497,.5441012E-3,.29906E-3,0
STARLINK-37333,2026-111AC,2026-06-13T14:00:01.999872,15.68814206,.00013754,53.1589,169.7924,82.3700,125.7415,0,U,69174,999,497,-.76973141E-2,-.815497E-2,0
STARLINK-37385,2026-111AD,2026-06-13T14:00:01.999872,15.49295610,.00011006,53.1591,170.5622,81.8812,106.2339,0,U,69175,999,497,.43587411E-3,.23856E-3,0
STARLINK-37414,2026-111AE,2026-06-13T14:00:01.999872,15.74010820,.00010448,53.1584,169.6699,95.8557,172.3659,0,U,69176,999,497,-.20545444E-1,-.2600882E-1,0
STARLINK-37380,2026-114A,2026-06-13T13:06:34.599456,15.78085585,.00009935,53.1583,220.6801,85.4275,274.6860,0,U,69182,999,419,.95364299E-3,.168444E-2,0
STARLINK-37089,2026-114B,2026-06-13T14:36:25.830720,15.78073048,.0001362,53.1585,220.3575,78.6520,281.4654,0,U,69183,999,420,.6018162E-3,.105204E-2,0
STARLINK-37428,2026-114C,2026-06-13T13:03:12.401856,15.78066525,.00012718,53.1588,220.6652,95.6155,264.5012,0,U,69184,999,419,.69719069E-3,.122191E-2,0
STARLINK-37237,2026-114D,2026-06-13T12:59:13.854912,15.78114662,.0001137,53.1588,220.6455,87.0122,273.1030,0,U,69185,999,419,.10686175E-2,.189552E-2,0
STARLINK-37365,2026-114E,2026-06-13T12:59:41.747424,15.78085858,.00012075,53.1589,220.6478,88.6499,271.4661,0,U,69186,999,419,.95973356E-3,.169549E-2,0
STARLINK-37209,2026-114F,2026-06-13T12:58:34.891104,15.78084842,.00011375,53.1589,220.6431,58.8674,301.2459,0,U,69187,999,419,.93003365E-3,.164169E-2,0
