STARLINK-37345          
1 69156U 26111J   26164.58335648 -.02575536  00000+0 -15412-1 0  9997
2 69156  53.1571 169.6734 0000851  92.3974 175.8919 15.80732628  4977
STARLINK-37353          
1 69157U 26111K   26164.28316132  .00316100  00000+0  15401-2 0  9997
2 69157  53.1573 171.1748 0001148  95.2430 264.8724 15.80971582  3642
STARLINK-37363          
1 69158U 26111L   26164.58335648 -.02557703  00000+0 -16592-1 0  9995
2 69158  53.1579 169.6487 0000790  74.3044 205.8602 15.78964552  4975
STARLINK-37343          
1 69159U 26111M   26164.58335648  .00020079  00000+0  36813-3 0  9993
2 69159  53.1594 170.5524 0000770  89.4723 104.6740 15.49310445  4978
STARLINK-37328          
1 69160U 26111N   26163.90162882  .00081162  00000+0  41056-3 0  9993
2 69160  53.1571 173.0599 0000811 108.8251 251.2860 15.80890549  3584
STARLINK-37311          
1 69161U 26111P   26164.29183088  .00223651  00000+0  12550-2 0  9995
2 69161  53.1574 171.2323 0001326  95.4591 264.6581 15.78116663  3643
STARLINK-36286          
1 69162U 26111Q   26163.65766931 -.00390918  00000+0 -23897-2 0  9998
2 69162  53.1571 174.3873 0000815 172.6788 187.4246 15.77702201  3540
STARLINK-37196          
1 69163U 26111R   26164.48369528  .00274043  00000+0  15265-2 0  9990
2 69163  53.1572 170.2954 0001276  94.9066 265.2101 15.78136195  3677
STARLINK-36288          
1 69164U 26111S   26164.58335648 -.02591873  00000+0 -21365-1 0  9992
2 69164  53.1588 169.8052 0001205  87.4588 115.4841 15.73017342  4974
STARLINK-37445          
1 69165U 26111T   26163.33993560 -.00030174  00000+0 -17173-3 0  9992
2 69165  53.1576 175.9593 0003125  39.8044 320.3206 15.77891462  3496
STARLINK-37491          
1 69166U 26111U   26164.22876231  .00308580  00000+0  17121-2 0  9996
2 69166  53.1572 171.5492 0001639  15.7925 344.3148 15.78126386  3636
STARLINK-37474          
1 69167U 26111V   26164.28953788  .00116943  00000+0  66790-3 0  9993
2 69167  53.1573 171.2157 0000994  85.9288 274.1847 15.78064101  3640
STARLINK-37469          
1 69168U 26111W   26164.58335648  .00029957  00000+0  54501-3 0  9991
2 69168  53.1584 170.7420 0000713  88.0391  11.9740 15.49287761  4971
STARLINK-37515          
1 69169U 26111X   26164.47812899 -.01060794  00000+0 -72513-2 0  9997
2 69169  53.1579 170.2586 0001112  20.1093 339.9971 15.76561582  3675
STARLINK-37437          
1 69170U 26111Y   26164.28362367  .00246780  00000+0  13804-2 0  9994
2 69170  53.1583 171.1764 0001518  97.1544 262.9650 15.78119735  3642
STARLINK-37392          
1 69171U 26111Z   26164.58335648 -.02625081  00000+0 -20044-1 0  9992
2 69171  53.1588 169.6640 0000887  76.1946 194.5982 15.74819940  4970
STARLINK-37472          
1 69172U 26111AA  26164.58335648 -.02570967  00000+0 -35734-1 0  9997
2 69172  53.1590 169.8243 0001468  80.4979 111.1554 15.60224635  4971
STARLINK-37461          
1 69173U 26111AB  26164.58335648  .00029906  00000+0  54410-3 0  9990
2 69173  53.1585 170.6494 0001138  92.4297  52.8749 15.49288124  4971
STARLINK-37333          
1 69174U 26111AC  26164.58335648 -.00815497  00000+0 -76973-2 0  9998
2 69174  53.1589 169.7924 0001375  82.3700 125.7415 15.68814206  4970
STARLINK-37385          
1 69175U 26111AD  26164.58335648  .00023856  00000+0  43587-3 0  9993
2 69175  53.1591 170.5622 0001100  81.8812 106.2339 15.49295610  4973
STARLINK-37414          
1 69176U 26111AE  26164.58335648 -.02600882  00000+0 -20545-1 0  9995
2 69176  53.1584 169.6699 0001044  95.8557 172.3659 15.74010820  4972
STARLINK-37380          
1 69182U 26114A   26164.54623379  .00168444  00000+0  95364-3 0  9994
2 69182  53.1583 220.6801 0000993  85.4275 274.6860 15.78085585  4193
STARLINK-37089          
1 69183U 26114B   26164.60863230  .00105204  00000+0  60182-3 0  9999
2 69183  53.1585 220.3575 0001362  78.6520 281.4654 15.78073048  4209
STARLINK-37428          
1 69184U 26114C   26164.54389354  .00122191  00000+0  69719-3 0  9992
2 69184  53.1588 220.6652 0001271  95.6155 264.5012 15.78066525  4194
STARLINK-37237          
1 69185U 26114D   26164.54113258  .00189552  00000+0  10686-2 0  9993
2 69185  53.1588 220.6455 0001137  87.0122 273.1030 15.78114662  4198
STARLINK-37365          
1 69186U 26114E   26164.54145541  .00169549  00000+0  95973-3 0  9991
2 69186  53.1589 220.6478 0001207  88.6499 271.4661 15.78085858  4192
STARLINK-37209          
1 69187U 26114F   26164.54068161  .00164169  00000+0  93003-3 0  9999
2 69187  53.1589 220.6431 0001137  58.8674 301.2459 15.78084842  4197
